STARLINK-1957           
1 47558U 21009L   24156.01786941  .00017214  00000+0  11712-2 0  9993
2 47558  53.0558  21.1710 0001306  82.7588 277.3549 15.06415141184522
STARLINK-1958           
1 47559U 21009M   24155.31845464  .00003847  00000+0  27712-3 0  9997
2 47559  53.0565  14.3106 0001487  81.2119 278.9038 15.06389490184569
STARLINK-1959           
1 47560U 21009N   24155.31013605 -.00001243  00000+0 -64562-4 0  9998
2 47560  53.0567  14.3378 0001759  90.8062 269.3129 15.06389040183957
STARLINK-1960           
1 47561U 21009P   24155.96164744  .00018909  00000+0  12840-2 0  9996
2 47561  53.0554  31.4230 0001171  70.7796 289.3320 15.06427175183777
STARLINK-1961           
1 47562U 21009Q   24156.04273816  .00018358  00000+0  12478-2 0  9993
2 47562  53.0553  31.0587 0001274 112.1337 247.9787 15.06409925184393
STARLINK-1962           
1 47563U 21009R   24155.93215911  .00018232  00000+0  12392-2 0  9999
2 47563  53.0562  31.5536 0001449  82.6731 277.4423 15.06414504183760
STARLINK-1963           
1 47564U 21009S   24155.99942348  .00014977  00000+0  10214-2 0  9990
2 47564  53.0564  21.2533 0001252  97.7805 262.3326 15.06430427184529
STARLINK-1964           
1 47565U 21009T   24155.99573248  .00014046  00000+0  95949-3 0  9996
2 47565  53.0559  21.2694 0001224 104.8819 255.2305 15.06417424184526
STARLINK-1965           
1 47566U 21009U   24155.85659816  .00005337  00000+0  37676-3 0  9994
2 47566  53.0578  11.8959 0001641  86.8447 273.2729 15.06416813184033
STARLINK-1966           
1 47567U 21009V   24156.09249494  .00010687  00000+0  73472-3 0  9997
2 47567  53.0552  50.8340 0001362  96.2122 263.9022 15.06428953184106
STARLINK-1967           
1 47568U 21009W   24156.18464132  .00025678  00000+0  17342-2 0  9995
2 47568  53.0568  50.4189 0001416  93.5788 266.5363 15.06448274184137
STARLINK-1969           
1 47570U 21009Y   24155.84877122  .00068702  00000+0  10003-2 0  9999
2 47570  53.0538 355.0222 0001891 265.5061  94.5733 15.55124929184278
STARLINK-1970           
1 47571U 21009Z   24155.92202214  .00009374  00000+0  64698-3 0  9993
2 47571  53.0556  21.5997 0001233  94.2807 265.8323 15.06423657183901
STARLINK-1971           
1 47572U 21009AA  24156.03628831  .00019034  00000+0  12927-2 0  9995
2 47572  53.0555  21.0915 0001301  99.0852 261.0284 15.06415837184530
STARLINK-1975           
1 47573U 21009AB  24155.35071653  .00006471  00000+0  45281-3 0  9995
2 47573  53.0560  24.1678 0001247  90.7997 269.3135 15.06405818184415
STARLINK-1976           
1 47574U 21009AC  24156.02984010  .00017444  00000+0  11864-2 0  9992
2 47574  53.0551  51.1158 0001384 104.0263 256.0880 15.06421602184099
STARLINK-1977           
1 47575U 21009AD  24156.01878308  .00021501  00000+0  14572-2 0  9992
2 47575  53.0549  51.1670 0001341  76.8288 283.2850 15.06418447184094
STARLINK-1978           
1 47576U 21009AE  24155.98560725  .00015983  00000+0  10893-2 0  9998
2 47576  53.0563  11.3144 0002184  79.8084 280.3151 15.06405860184668
STARLINK-1979           
1 47577U 21009AF  24155.36315175  .00012431  00000+0  85237-3 0  9998
2 47577  53.0560  29.1098 0002499  78.6641 281.4628 15.06382005184358
STARLINK-1980           
1 47578U 21009AG  24155.95428519  .00014797  00000+0  10097-2 0  9999
2 47578  53.0569  31.4561 0001186  94.8064 265.3060 15.06417448183765
STARLINK-1981           
1 47579U 21009AH  24156.00311366  .00016507  00000+0  11239-2 0  9998
2 47579  53.0547  21.2331 0001562 274.7674  85.3136 15.06418733184525
STARLINK-1982           
1 47580U 21009AJ  24156.02429712  .00016266  00000+0  11075-2 0  9997
2 47580  53.0562  31.1410 0001115 101.1791 258.9323 15.06428546184382
STARLINK-1984           
1 47581U 21009AK  24156.25001157  .00279219  00000+0  72346-2 0  9999
2 47581  53.0578   5.1171 0000963 111.6909 199.8246 15.37431909184762
STARLINK-1986           
1 47582U 21009AL  24155.92479462  .00014116  00000+0  96461-3 0  9999
2 47582  53.0562  31.5840 0001311 106.2638 253.8496 15.06401310183765
STARLINK-1987           
1 47583U 21009AM  24155.37191446  .00008433  00000+0  58426-3 0  9996
2 47583  53.0559  34.0706 0001351  88.5434 271.5710 15.06404393184290
STARLINK-1989           
1 47585U 21009AP  24156.06117247  .00017433  00000+0  11857-2 0  9998
2 47585  53.0562  30.9758 0001449  93.8653 266.2502 15.06420240184398
STARLINK-1990           
1 47586U 21009AQ  24155.44746243  .00003119  00000+0  22825-3 0  9998
2 47586  53.0554  53.7310 0001324  83.5566 276.5574 15.06392830183416
STARLINK-1991           
1 47587U 21009AR  24156.03998294  .00016376  00000+0  11148-2 0  9994
2 47587  53.0564  21.0703 0001439  91.8048 268.3106 15.06429536184523
STARLINK-1993           
1 47588U 21009AS  24155.89899365  .00016565  00000+0  11283-2 0  9997
2 47588  53.0555  31.7043 0001282  83.3845 276.7289 15.06401164183763
STARLINK-1994           
1 47589U 21009AT  24155.91740842  .00016136  00000+0  10984-2 0  9997
2 47589  53.0553  31.6211 0001226 101.9935 258.1192 15.06443887183768
STARLINK-1995           
1 47590U 21009AU  24155.97453638  .00002613  00000+0  19414-3 0  9992
2 47590  53.0580  51.3646 0001452  94.2569 265.8586 15.06419904184091
STARLINK-1996           
1 47591U 21009AV  24155.91373523  .00019000  00000+0  12903-2 0  9994
2 47591  53.0558  31.6375 0001562  93.8742 266.2426 15.06420527183761
STARLINK-1997           
1 47592U 21009AW  24155.74603915  .00029818  00000+0  20131-2 0  9997
2 47592  53.0547  52.3898 0001195  78.6056 281.5067 15.06384535183456
STARLINK-1998           
1 47593U 21009AX  24156.11461443  .00017689  00000+0  12024-2 0  9993
2 47593  53.0553  50.7344 0001400 101.1719 258.9428 15.06433087184120
STARLINK-1999           
1 47594U 21009AY  24156.08142542  .00021759  00000+0  14735-2 0  9990
2 47594  53.0555  50.8880 0001408  96.6123 263.5027 15.06442306184103
STARLINK-2000           
1 47595U 21009AZ  24155.13783929 -.00000041  00000+0  16103-4 0  9991
2 47595  53.0556  55.1204 0001093  83.0453 277.0660 15.06390841183961
STARLINK-2001           
1 47596U 21009BA  24155.40692365  .00007765  00000+0  53956-3 0  9990
2 47596  53.0547  53.9125 0001428  90.3698 269.7454 15.06402624183405
STARLINK-2002           
1 47597U 21009BB  24156.12935778  .00016439  00000+0  11196-2 0  9996
2 47597  53.0563  50.6744 0001485  80.2171 279.8985 15.06411394184127
STARLINK-2003           
1 47598U 21009BC  24156.00680823  .00016449  00000+0  11205-2 0  9994
2 47598  53.0559  21.2203 0001271  76.5209 283.5922 15.06403187184539
STARLINK-2004           
1 47599U 21009BD  24155.91667824  .00316094  00000+0  29667-2 0  9990
2 47599  53.0546 351.6023 0000492  21.0436  26.3993 15.65646823  5979
STARLINK-2005           
1 47600U 21009BE  24155.88977471  .00003430  00000+0  24900-3 0  9994
2 47600  53.0572  11.7167 0001580  91.7065 268.4105 15.06410307184653
STARLINK-2006           
1 47601U 21009BF  24156.00035552  .00016210  00000+0  11044-2 0  9999
2 47601  53.0553  11.2490 0001357  77.9857 282.1284 15.06408574184669
STARLINK-2007           
1 47602U 21009BG  24155.34118604  .00022231  00000+0  13791-2 0  9997
2 47602  53.0541  23.3322 0003299 113.5044 246.6294 15.09658591183829
STARLINK-2008           
1 47603U 21009BH  24156.03352796  .00022822  00000+0  15448-2 0  9994
2 47603  53.0550  51.1004 0001369  86.6617 273.4529 15.06431034184095
STARLINK-2021           
1 47604U 21009BJ  24155.89622416  .00017067  00000+0  11615-2 0  9994
2 47604  53.0553  21.7167 0001351  76.1707 283.9432 15.06411708183901
STARLINK-2024           
1 47606U 21009BL  24155.89991503  .00020249  00000+0  13743-2 0  9992
2 47606  53.0549  21.7006 0001405  76.2269 283.8876 15.06402382183903
STARLINK-2025           
1 47607U 21009BM  24155.90861816  .00011626  00000+0  79797-3 0  9999
2 47607  53.0555  16.4577 0001080  97.7044 262.4068 15.06405245183977
STARLINK-1528           
1 47620U 21012A   24156.09341135  .00002302  00000+0  17329-3 0  9990
2 47620  53.0550  80.8314 0001240  86.7299 273.3832 15.06416670182466
STARLINK-1609           
1 47621U 21012B   24156.08605035  .00006454  00000+0  45160-3 0  9998
2 47621  53.0538  80.8633 0001429  87.7749 272.3403 15.06413498182465
STARLINK-1645           
1 47622U 21012C   24156.08141425  .00009171  00000+0  63353-3 0  9990
2 47622  53.0562  80.8738 0001573  87.1800 272.9369 15.06414171182467
STARLINK-1655           
1 47623U 21012D   24155.62945053  .00016897  00000+0  11503-2 0  9991
2 47623  53.0552  17.9140 0001411 101.4672 258.6475 15.06406844183821
STARLINK-1669           
1 47624U 21012E   24156.02153409  .00001055  00000+0  89667-4 0  9991
2 47624  53.0557  61.1540 0001635  85.9277 274.1899 15.06413033182737
STARLINK-1704           
1 47625U 21012F   24156.08878153  .00005094  00000+0  36048-3 0  9999
2 47625  53.0561  80.8405 0001518  91.2974 268.8189 15.06412695182460
STARLINK-1761           
1 47626U 21012G   24156.20764540  .00004405  00000+0  31412-3 0  9993
2 47626  53.0563  80.3153 0001381  96.7894 263.3253 15.06435609182481
STARLINK-1972           
1 47627U 21012H   24155.82020346  .00002898  00000+0  21343-3 0  9996
2 47627  53.0549 347.0593 0001659  91.5007 268.6172 15.06394207184246
STARLINK-1973           
1 47628U 21012J   24156.17724818  .00003710  00000+0  26775-3 0  9999
2 47628  53.0548  80.4453 0001382  89.7558 270.3590 15.06412909182479
STARLINK-1974           
1 47629U 21012K   24156.15976081  .00004190  00000+0  29999-3 0  9993
2 47629  53.0551 320.5362 0001254  90.7862 269.3271 15.06404754184159
STARLINK-1983           
1 47630U 21012L   24155.45391762  .00003993  00000+0  28688-3 0  9998
2 47630  53.0551  63.7885 0001356  83.9142 276.2001 15.06390454182646
STARLINK-1992           
1 47632U 21012N   24155.91137148  .00005911  00000+0  41510-3 0  9998
2 47632  53.0542 346.6487 0001168 344.3346  15.7607 15.06425696183769
